ONEWEB-0721             
1 56725U 23068R   26199.16012535  .00000106  00000+0  22069-3 0  9992
2 56725  86.6739  75.6278 0001746  80.1399 279.9932 13.22471855162030
ONEWEB-0015             
1 61594U 24188A   26198.98075793 -.00000529  00000+0 -15286-2 0  9993
2 61594  87.8883  14.9601 0001439  77.7930 282.3359 13.11417561 88491
ONEWEB-0687             
1 61595U 24188B   26199.13679625  .00000048  00000+0  91679-4 0  9992
2 61595  87.9144 359.7180 0001879  77.3462 282.7880 13.17650570 89971
ONEWEB-0688             
1 61596U 24188C   26198.93766505 -.00000211  00000+0 -57713-3 0  9998
2 61596  87.9143 359.7576 0001024  55.6856 304.4373 13.17648650 89940
ONEWEB-0689             
1 61597U 24188D   26199.01468012  .00000506  00000+0  13912-2 0  9998
2 61597  87.8897  14.9159 0002074  84.7682 275.3683 13.11417313 88492
ONEWEB-0690             
1 61598U 24188E   26199.25374998  .00000443  00000+0  12133-2 0  9998
2 61598  87.8894  14.8784 0001710 112.5912 247.5397 13.11415531 88702
ONEWEB-0691             
1 61599U 24188F   26199.01977548  .00000552  00000+0  15229-2 0  9993
2 61599  87.8904  14.8365 0001640  80.8845 279.2468 13.11415749 88526
ONEWEB-0692             
1 61600U 24188G   26199.19269392 -.00000078  00000+0 -25657-3 0  9998
2 61600  87.8884  14.9095 0002635  92.8909 267.2521 13.11416671 88539
ONEWEB-0693             
1 61601U 24188H   26199.17729777 -.00000066  00000+0 -20190-3 0  9999
2 61601  87.9140 359.7284 0001547 118.3730 241.7557 13.17649814 89960
ONEWEB-0695             
1 61602U 24188J   26199.24527186  .00000629  00000+0  17395-2 0  9993
2 61602  87.8883  14.8915 0002339  86.9894 273.1502 13.11417460 88530
ONEWEB-0697             
1 61603U 24188K   26199.20117591 -.00000396  00000+0 -11534-2 0  9997
2 61603  87.8886  14.8905 0002570  95.7702 264.3719 13.11416112 88519
ONEWEB-0698             
1 61604U 24188L   26199.02655595  .00000343  00000+0  93295-3 0  9994
2 61604  87.8884  14.9388 0002614 115.6669 244.4729 13.11415379 88511
ONEWEB-0699             
1 61605U 24188M   26199.06369401  .00000579  00000+0  16231-2 0  9992
2 61605  87.8816  30.1122 0002472  96.1607 263.9802 13.10372221 87356
ONEWEB-0700             
1 61606U 24188N   26199.29445427  .00000475  00000+0  13234-2 0  9996
2 61606  87.8834  29.9804 0002510  94.4013 265.7401 13.10369169 87379
ONEWEB-0701             
1 61607U 24188P   26199.23506234 -.00000127  00000+0 -40003-3 0  9996
2 61607  87.8817  30.0782 0002597  97.3041 262.8381 13.10369759 87377
ONEWEB-0702             
1 61608U 24188Q   26199.22492218 -.00000169  00000+0 -51138-3 0  9999
2 61608  87.8906  14.8110 0002892  91.1676 268.9783 13.11418208 88555
ONEWEB-0704             
1 61609U 24188R   26199.07047219  .00000395  00000+0  10965-2 0  9991
2 61609  87.8821  30.1014 0002873  87.5083 272.6374 13.10369311 87338
ONEWEB-0705             
1 61610U 24188S   26199.07556591  .00000109  00000+0  27589-3 0  9995
2 61610  87.8820  30.1064 0002631  71.9449 288.1965 13.10368974 79501
ONEWEB-0706             
1 61611U 24188T   26199.28937149  .00000709  00000+0  19940-2 0  9998
2 61611  87.8819  30.0672 0002431  84.6767 275.4637 13.10373115 87457
ONEWEB-0707             
1 61612U 24188U   26199.06707531  .00000564  00000+0  15781-2 0  9993
2 61612  87.8823  30.1069 0002438  86.7405 273.4001 13.10369748 87363
ONEWEB-0708             
1 61613U 24188V   26199.23844217 -.00000252  00000+0 -75918-3 0  9991
2 61613  87.8813  30.0885 0001944  70.8433 289.2905 13.10369332 87361
