OBJECT_NAME,OBJECT_ID,EPOCH,MEAN_MOTION,ECCENTRICITY,INCLINATION,RA_OF_ASC_NODE,ARG_OF_PERICENTER,MEAN_ANOMALY,EPHEMERIS_TYPE,CLASSIFICATION_TYPE,NORAD_CAT_ID,ELEMENT_SET_NO,REV_AT_EPOCH,BSTAR,MEAN_MOTION_DOT,MEAN_MOTION_DDOT
ONEWEB-0721,2023-068R,2026-07-18T03:50:34.830240,13.22471855,.00017462,86.6739,75.6278,80.1399,279.9932,0,U,56725,999,16203,.22069238E-3,.106E-5,0
ONEWEB-0015,2024-188A,2026-07-17T23:32:17.485152,13.11417561,.00014398,87.8883,14.9601,77.7930,282.3359,0,U,61594,999,8849,-.15286241E-2,-.529E-5,0
ONEWEB-0687,2024-188B,2026-07-18T03:16:59.196000,13.17650570,.00018793,87.9144,359.7180,77.3462,282.7880,0,U,61595,999,8997,.91679306E-4,.48E-6,0
ONEWEB-0688,2024-188C,2026-07-17T22:30:14.260320,13.17648650,.0001024,87.9143,359.7576,55.6856,304.4373,0,U,61596,999,8994,-.57713204E-3,-.211E-5,0
ONEWEB-0689,2024-188D,2026-07-18T00:21:08.362368,13.11417313,.00020745,87.8897,14.9159,84.7682,275.3683,0,U,61597,999,8849,.13911563E-2,.506E-5,0
ONEWEB-0690,2024-188E,2026-07-18T06:05:23.998272,13.11415531,.00017105,87.8894,14.8784,112.5912,247.5397,0,U,61598,999,8870,.12133075E-2,.443E-5,0
ONEWEB-0691,2024-188F,2026-07-18T00:28:28.601472,13.11415749,.000164,87.8904,14.8365,80.8845,279.2468,0,U,61599,999,8852,.15229034E-2,.552E-5,0
ONEWEB-0692,2024-188G,2026-07-18T04:37:28.754688,13.11416671,.00026359,87.8884,14.9095,92.8909,267.2521,0,U,61600,999,8853,-.25656651E-3,-.78E-6,0
ONEWEB-0693,2024-188H,2026-07-18T04:15:18.527328,13.17649814,.00015472,87.9140,359.7284,118.3730,241.7557,0,U,61601,999,8996,-.20190079E-3,-.66E-6,0
ONEWEB-0695,2024-188J,2026-07-18T05:53:11.488704,13.11417460,.00023397,87.8883,14.8915,86.9894,273.1502,0,U,61602,999,8853,.17394867E-2,.629E-5,0
ONEWEB-0697,2024-188K,2026-07-18T04:49:41.598624,13.11416112,.00025707,87.8886,14.8905,95.7702,264.3719,0,U,61603,999,8851,-.11534287E-2,-.396E-5,0
ONEWEB-0698,2024-188L,2026-07-18T00:38:14.434080,13.11415379,.00026141,87.8884,14.9388,115.6669,244.4729,0,U,61604,999,8851,.93295031E-3,.343E-5,0
ONEWEB-0699,2024-188M,2026-07-18T01:31:43.162464,13.10372221,.00024726,87.8816,30.1122,96.1607,263.9802,0,U,61605,999,8735,.16230757E-2,.579E-5,0
ONEWEB-0700,2024-188N,2026-07-18T07:04:00.848928,13.10369169,.00025104,87.8834,29.9804,94.4013,265.7401,0,U,61606,999,8737,.13234304E-2,.475E-5,0
ONEWEB-0701,2024-188P,2026-07-18T05:38:29.386176,13.10369759,.00025977,87.8817,30.0782,97.3041,262.8381,0,U,61607,999,8737,-.40002533E-3,-.127E-5,0
ONEWEB-0702,2024-188Q,2026-07-18T05:23:53.276352,13.11418208,.00028928,87.8906,14.8110,91.1676,268.9783,0,U,61608,999,8855,-.51137821E-3,-.169E-5,0
ONEWEB-0704,2024-188R,2026-07-18T01:41:28.797216,13.10369311,.00028734,87.8821,30.1014,87.5083,272.6374,0,U,61609,999,8733,.10965001E-2,.395E-5,0
ONEWEB-0705,2024-188S,2026-07-18T01:48:48.894624,13.10368974,.00026312,87.8820,30.1064,71.9449,288.1965,0,U,61610,999,7950,.2758903E-3,.109E-5,0
ONEWEB-0706,2024-188T,2026-07-18T06:56:41.696736,13.10373115,.00024315,87.8819,30.0672,84.6767,275.4637,0,U,61611,999,8745,.19939782E-2,.709E-5,0
ONEWEB-0707,2024-188U,2026-07-18T01:36:35.306784,13.10369748,.00024384,87.8823,30.1069,86.7405,273.4001,0,U,61612,999,8736,.15781392E-2,.564E-5,0
ONEWEB-0708,2024-188V,2026-07-18T05:43:21.403488,13.10369332,.00019444,87.8813,30.0885,70.8433,289.2905,0,U,61613,999,8736,-.75918386E-3,-.252E-5,0
